CCSDS_OMM_VERS = 2.0
CREATION_DATE  = 
ORIGINATOR     = 

OBJECT_NAME    = COSMOS 2550
OBJECT_ID      = 2021-056A
CENTER_NAME    = EARTH
REF_FRAME      = TEME
TIME_SYSTEM    = UTC
MEAN_ELEMENT_THEORY = SGP/SGP4

EPOCH          = 2025-10-27T19:40:41.544192
MEAN_MOTION    = 15.33827218
ECCENTRICITY   = .0008326
INCLINATION    = 67.1425
RA_OF_ASC_NODE = 82.8882
ARG_OF_PERICENTER = 270.4601
MEAN_ANOMALY   = 89.5599

EPHEMERIS_TYPE = 0
CLASSIFICATION_TYPE = U
NORAD_CAT_ID   = 48865
ELEMENT_SET_NO = 999
REV_AT_EPOCH   = 24308
BSTAR          = .26827E-4
MEAN_MOTION_DOT = .691E-5
MEAN_MOTION_DDOT = 0

CCSDS_OMM_VERS = 2.0
CREATION_DATE  = 
ORIGINATOR     = 

OBJECT_NAME    = CZ-2C R/B
OBJECT_ID      = 2022-058K
CENTER_NAME    = EARTH
REF_FRAME      = TEME
TIME_SYSTEM    = UTC
MEAN_ELEMENT_THEORY = SGP/SGP4

EPOCH          = 2025-10-27T08:40:26.868576
MEAN_MOTION    = 15.45280600
ECCENTRICITY   = .0051087
INCLINATION    = 50.1912
RA_OF_ASC_NODE = 279.4984
ARG_OF_PERICENTER = 4.9627
MEAN_ANOMALY   = 355.1836

EPHEMERIS_TYPE = 0
CLASSIFICATION_TYPE = U
NORAD_CAT_ID   = 52794
ELEMENT_SET_NO = 999
REV_AT_EPOCH   = 18945
BSTAR          = .55508E-3
MEAN_MOTION_DOT = .27926E-3
MEAN_MOTION_DDOT = 0

CCSDS_OMM_VERS = 2.0
CREATION_DATE  = 
ORIGINATOR     = 

OBJECT_NAME    = GSLV R/B
OBJECT_ID      = 2022-138AN
CENTER_NAME    = EARTH
REF_FRAME      = TEME
TIME_SYSTEM    = UTC
MEAN_ELEMENT_THEORY = SGP/SGP4

EPOCH          = 2025-10-27T20:00:33.960096
MEAN_MOTION    = 14.95746035
ECCENTRICITY   = .0019041
INCLINATION    = 87.3854
RA_OF_ASC_NODE = 210.8337
ARG_OF_PERICENTER = 276.1530
MEAN_ANOMALY   = 83.7531

EPHEMERIS_TYPE = 0
CLASSIFICATION_TYPE = U
NORAD_CAT_ID   = 54149
ELEMENT_SET_NO = 999
REV_AT_EPOCH   = 16406
BSTAR          = .42565E-3
MEAN_MOTION_DOT = .4785E-4
MEAN_MOTION_DDOT = 0

CCSDS_OMM_VERS = 2.0
CREATION_DATE  = 
ORIGINATOR     = 

OBJECT_NAME    = XRISM
OBJECT_ID      = 2023-137A
CENTER_NAME    = EARTH
REF_FRAME      = TEME
TIME_SYSTEM    = UTC
MEAN_ELEMENT_THEORY = SGP/SGP4

EPOCH          = 2025-10-27T16:39:51.573024
MEAN_MOTION    = 15.09612367
ECCENTRICITY   = .0008199
INCLINATION    = 31.0029
RA_OF_ASC_NODE = 62.6726
ARG_OF_PERICENTER = 141.1697
MEAN_ANOMALY   = 218.9531

EPHEMERIS_TYPE = 0
CLASSIFICATION_TYPE = U
NORAD_CAT_ID   = 57800
ELEMENT_SET_NO = 999
REV_AT_EPOCH   = 11766
BSTAR          = .40458E-3
MEAN_MOTION_DOT = .6764E-4
MEAN_MOTION_DDOT = 0

CCSDS_OMM_VERS = 2.0
CREATION_DATE  = 
ORIGINATOR     = 

OBJECT_NAME    = ACS3
OBJECT_ID      = 2024-077B
CENTER_NAME    = EARTH
REF_FRAME      = TEME
TIME_SYSTEM    = UTC
MEAN_ELEMENT_THEORY = SGP/SGP4

EPOCH          = 2025-10-27T20:20:04.735392
MEAN_MOTION    = 13.82768164
ECCENTRICITY   = .0029253
INCLINATION    = 97.3478
RA_OF_ASC_NODE = 266.6016
ARG_OF_PERICENTER = 29.4797
MEAN_ANOMALY   = 330.8005

EPHEMERIS_TYPE = 0
CLASSIFICATION_TYPE = U
NORAD_CAT_ID   = 59588
ELEMENT_SET_NO = 999
REV_AT_EPOCH   = 7579
BSTAR          = .20879E-1
MEAN_MOTION_DOT = .2283E-3
MEAN_MOTION_DDOT = 0

