COSMOS 2550             
1 48865U 21056A   25300.81992528  .00000691  00000+0  26827-4 0  9993
2 48865  67.1425  82.8882 0008326 270.4601  89.5599 15.33827218243085
CZ-2C R/B               
1 52794U 22058K   25300.36142209  .00027926  00000+0  55508-3 0  9992
2 52794  50.1912 279.4984 0051087   4.9627 355.1836 15.45280600189458
GSLV R/B                
1 54149U 22138AN  25300.83372639  .00004785  00000+0  42565-3 0  9998
2 54149  87.3854 210.8337 0019041 276.1530  83.7531 14.95746035164061
XRISM                   
1 57800U 23137A   25300.69434691  .00006764  00000+0  40458-3 0  9994
2 57800  31.0029  62.6726 0008199 141.1697 218.9531 15.09612367117662
ACS3                    
1 59588U 24077B   25300.84727703  .00022830  00000+0  20879-1 0  9994
2 59588  97.3478 266.6016 0029253  29.4797 330.8005 13.82768164 75794
